SENTINEL-6A             
1 46984U 20086A   26185.49641758 -.00000038  00000+0  98234-4 0  9994
2 46984  66.0414  99.1022 0007837 270.0559  89.9558 12.80930021262549
SENTINEL-6B             
1 66514U 25264A   26185.73099325 -.00000035  00000+0  11457-3 0  9990
2 66514  66.0414  98.7411 0007916 268.9242  91.0867 12.80930074 29412
